[{"OBJECT_NAME":"ONEWEB-0714","OBJECT_ID":"2022-166AR","EPOCH":"2026-01-14T10:25:50.932992","MEAN_MOTION":13.21827981,"ECCENTRICITY":0.00017461,"INCLINATION":87.9218,"RA_OF_ASC_NODE":274.654,"ARG_OF_PERICENTER":70.9227,"MEAN_ANOMALY":289.2096,"EPHEMERIS_TYPE":0,"CLASSIFICATION_TYPE":"U","NORAD_CAT_ID":54681,"ELEMENT_SET_NO":999,"REV_AT_EPOCH":15122,"BSTAR":0.00022467225,"MEAN_MOTION_DOT":1.06e-6,"MEAN_MOTION_DDOT":0},{"OBJECT_NAME":"ONEWEB-0532","OBJECT_ID":"2023-004A","EPOCH":"2026-01-14T11:46:11.824896","MEAN_MOTION":13.17650239,"ECCENTRICITY":0.00021284,"INCLINATION":87.9095,"RA_OF_ASC_NODE":36.4095,"ARG_OF_PERICENTER":101.6926,"MEAN_ANOMALY":258.4444,"EPHEMERIS_TYPE":0,"CLASSIFICATION_TYPE":"U","NORAD_CAT_ID":55140,"ELEMENT_SET_NO":999,"REV_AT_EPOCH":14734,"BSTAR":0.00014478413,"MEAN_MOTION_DOT":6.9e-7,"MEAN_MOTION_DDOT":0},{"OBJECT_NAME":"ONEWEB-0533","OBJECT_ID":"2023-004B","EPOCH":"2026-01-14T12:49:47.090784","MEAN_MOTION":13.12442494,"ECCENTRICITY":0.00019382,"INCLINATION":87.8929,"RA_OF_ASC_NODE":21.1747,"ARG_OF_PERICENTER":86.1002,"MEAN_ANOMALY":274.0349,"EPHEMERIS_TYPE":0,"CLASSIFICATION_TYPE":"U","NORAD_CAT_ID":55141,"ELEMENT_SET_NO":999,"REV_AT_EPOCH":14790,"BSTAR":0.0011925076,"MEAN_MOTION_DOT":4.42e-6,"MEAN_MOTION_DDOT":0},{"OBJECT_NAME":"ONEWEB-0541","OBJECT_ID":"2023-004C","EPOCH":"2026-01-14T12:29:39.697440","MEAN_MOTION":13.11418979,"ECCENTRICITY":0.00017776,"INCLINATION":87.8834,"RA_OF_ASC_NODE":51.6405,"ARG_OF_PERICENTER":100.9431,"MEAN_ANOMALY":259.1897,"EPHEMERIS_TYPE":0,"CLASSIFICATION_TYPE":"U","NORAD_CAT_ID":55142,"ELEMENT_SET_NO":999,"REV_AT_EPOCH":14580,"BSTAR":-0.00085886846,"MEAN_MOTION_DOT":-2.92e-6,"MEAN_MOTION_DDOT":0},{"OBJECT_NAME":"ONEWEB-0543","OBJECT_ID":"2023-004D","EPOCH":"2026-01-14T12:20:02.009760","MEAN_MOTION":13.18685139,"ECCENTRICITY":0.00016798,"INCLINATION":87.9166,"RA_OF_ASC_NODE":5.9999,"ARG_OF_PERICENTER":77.8179,"MEAN_ANOMALY":282.3142,"EPHEMERIS_TYPE":0,"CLASSIFICATION_TYPE":"U","NORAD_CAT_ID":55143,"ELEMENT_SET_NO":999,"REV_AT_EPOCH":14944,"BSTAR":0.0001210325,"MEAN_MOTION_DOT":6.1e-7,"MEAN_MOTION_DDOT":0},{"OBJECT_NAME":"ONEWEB-0544","OBJECT_ID":"2023-004E","EPOCH":"2026-01-14T12:10:32.277792","MEAN_MOTION":13.1868757,"ECCENTRICITY":0.00015021,"INCLINATION":87.9172,"RA_OF_ASC_NODE":5.9937,"ARG_OF_PERICENTER":87.7295,"MEAN_ANOMALY":272.4009,"EPHEMERIS_TYPE":0,"CLASSIFICATION_TYPE":"U","NORAD_CAT_ID":55144,"ELEMENT_SET_NO":999,"REV_AT_EPOCH":14944,"BSTAR":0.00010308312,"MEAN_MOTION_DOT":5.4e-7,"MEAN_MOTION_DDOT":0},{"OBJECT_NAME":"ONEWEB-0560","OBJECT_ID":"2023-004F","EPOCH":"2026-01-14T12:01:02.183808","MEAN_MOTION":13.18685686,"ECCENTRICITY":0.00015383,"INCLINATION":87.9175,"RA_OF_ASC_NODE":5.9834,"ARG_OF_PERICENTER":85.3721,"MEAN_ANOMALY":274.7586,"EPHEMERIS_TYPE":0,"CLASSIFICATION_TYPE":"U","NORAD_CAT_ID":55145,"ELEMENT_SET_NO":999,"REV_AT_EPOCH":14945,"BSTAR":0.00011870074,"MEAN_MOTION_DOT":6.0e-7,"MEAN_MOTION_DDOT":0},{"OBJECT_NAME":"ONEWEB-0565","OBJECT_ID":"2023-004G","EPOCH":"2026-01-14T11:51:31.980096","MEAN_MOTION":13.18685562,"ECCENTRICITY":0.00015321,"INCLINATION":87.9165,"RA_OF_ASC_NODE":6.0274,"ARG_OF_PERICENTER":103.1949,"MEAN_ANOMALY":256.9355,"EPHEMERIS_TYPE":0,"CLASSIFICATION_TYPE":"U","NORAD_CAT_ID":55146,"ELEMENT_SET_NO":999,"REV_AT_EPOCH":14944,"BSTAR":0.00018734909,"MEAN_MOTION_DOT":8.7e-7,"MEAN_MOTION_DDOT":0},{"OBJECT_NAME":"ONEWEB-0567","OBJECT_ID":"2023-004H","EPOCH":"2026-01-14T11:42:01.772928","MEAN_MOTION":13.18685459,"ECCENTRICITY":0.00014406,"INCLINATION":87.9173,"RA_OF_ASC_NODE":5.9983,"ARG_OF_PERICENTER":95.8536,"MEAN_ANOMALY":264.276,"EPHEMERIS_TYPE":0,"CLASSIFICATION_TYPE":"U","NORAD_CAT_ID":55147,"ELEMENT_SET_NO":999,"REV_AT_EPOCH":14944,"BSTAR":0.00012082536,"MEAN_MOTION_DOT":6.1e-7,"MEAN_MOTION_DDOT":0},{"OBJECT_NAME":"ONEWEB-0569","OBJECT_ID":"2023-004J","EPOCH":"2026-01-14T10:25:05.938464","MEAN_MOTION":13.13470397,"ECCENTRICITY":7.952e-5,"INCLINATION":87.901,"RA_OF_ASC_NODE":350.7649,"ARG_OF_PERICENTER":79.8164,"MEAN_ANOMALY":280.3055,"EPHEMERIS_TYPE":0,"CLASSIFICATION_TYPE":"U","NORAD_CAT_ID":55148,"ELEMENT_SET_NO":999,"REV_AT_EPOCH":14999,"BSTAR":-2.3034444e-5,"MEAN_MOTION_DOT":4.0e-8,"MEAN_MOTION_DDOT":0},{"OBJECT_NAME":"ONEWEB-0570","OBJECT_ID":"2023-004K","EPOCH":"2026-01-14T11:27:46.743840","MEAN_MOTION":13.18686571,"ECCENTRICITY":0.00020202,"INCLINATION":87.9174,"RA_OF_ASC_NODE":5.9997,"ARG_OF_PERICENTER":100.8352,"MEAN_ANOMALY":259.3008,"EPHEMERIS_TYPE":0,"CLASSIFICATION_TYPE":"U","NORAD_CAT_ID":55149,"ELEMENT_SET_NO":999,"REV_AT_EPOCH":14943,"BSTAR":0.00015924862,"MEAN_MOTION_DOT":7.6e-7,"MEAN_MOTION_DDOT":0},{"OBJECT_NAME":"ONEWEB-0571","OBJECT_ID":"2023-004L","EPOCH":"2026-01-14T11:18:17.479296","MEAN_MOTION":13.18686526,"ECCENTRICITY":0.00010697,"INCLINATION":87.9173,"RA_OF_ASC_NODE":5.9999,"ARG_OF_PERICENTER":131.013,"MEAN_ANOMALY":229.1095,"EPHEMERIS_TYPE":0,"CLASSIFICATION_TYPE":"U","NORAD_CAT_ID":55150,"ELEMENT_SET_NO":999,"REV_AT_EPOCH":14944,"BSTAR":5.6419628e-5,"MEAN_MOTION_DOT":3.5e-7,"MEAN_MOTION_DDOT":0},{"OBJECT_NAME":"ONEWEB-0572","OBJECT_ID":"2023-004M","EPOCH":"2026-01-14T12:29:55.995936","MEAN_MOTION":13.17650662,"ECCENTRICITY":0.00016988,"INCLINATION":87.9088,"RA_OF_ASC_NODE":36.4111,"ARG_OF_PERICENTER":99.1774,"MEAN_ANOMALY":260.955,"EPHEMERIS_TYPE":0,"CLASSIFICATION_TYPE":"U","NORAD_CAT_ID":55151,"ELEMENT_SET_NO":999,"REV_AT_EPOCH":14724,"BSTAR":9.7332808e-5,"MEAN_MOTION_DOT":5.1e-7,"MEAN_MOTION_DDOT":0},{"OBJECT_NAME":"ONEWEB-0573","OBJECT_ID":"2023-004N","EPOCH":"2026-01-14T11:08:46.553280","MEAN_MOTION":13.1868707,"ECCENTRICITY":0.00017092,"INCLINATION":87.9172,"RA_OF_ASC_NODE":6.0042,"ARG_OF_PERICENTER":114.464,"MEAN_ANOMALY":245.6671,"EPHEMERIS_TYPE":0,"CLASSIFICATION_TYPE":"U","NORAD_CAT_ID":55152,"ELEMENT_SET_NO":999,"REV_AT_EPOCH":14943,"BSTAR":0.00011708289,"MEAN_MOTION_DOT":5.9e-7,"MEAN_MOTION_DDOT":0},{"OBJECT_NAME":"ONEWEB-0588","OBJECT_ID":"2023-004P","EPOCH":"2026-01-14T10:59:16.350432","MEAN_MOTION":13.18686712,"ECCENTRICITY":0.00019064,"INCLINATION":87.9178,"RA_OF_ASC_NODE":6.0039,"ARG_OF_PERICENTER":100.7271,"MEAN_ANOMALY":259.4076,"EPHEMERIS_TYPE":0,"CLASSIFICATION_TYPE":"U","NORAD_CAT_ID":55153,"ELEMENT_SET_NO":999,"REV_AT_EPOCH":14943,"BSTAR":0.00010619481,"MEAN_MOTION_DOT":5.5e-7,"MEAN_MOTION_DDOT":0},{"OBJECT_NAME":"ONEWEB-0598","OBJECT_ID":"2023-004Q","EPOCH":"2026-01-14T11:57:55.333440","MEAN_MOTION":13.11414933,"ECCENTRICITY":0.00012293,"INCLINATION":87.8822,"RA_OF_ASC_NODE":51.6694,"ARG_OF_PERICENTER":107.1325,"MEAN_ANOMALY":252.9938,"EPHEMERIS_TYPE":0,"CLASSIFICATION_TYPE":"U","NORAD_CAT_ID":55154,"ELEMENT_SET_NO":999,"REV_AT_EPOCH":14575,"BSTAR":-0.0011263338,"MEAN_MOTION_DOT":-3.86e-6,"MEAN_MOTION_DDOT":0},{"OBJECT_NAME":"ONEWEB-0599","OBJECT_ID":"2023-004R","EPOCH":"2026-01-14T11:34:02.576064","MEAN_MOTION":13.17650491,"ECCENTRICITY":0.00016091,"INCLINATION":87.9085,"RA_OF_ASC_NODE":36.4188,"ARG_OF_PERICENTER":90.4307,"MEAN_ANOMALY":269.7009,"EPHEMERIS_TYPE":0,"CLASSIFICATION_TYPE":"U","NORAD_CAT_ID":55155,"ELEMENT_SET_NO":999,"REV_AT_EPOCH":14724,"BSTAR":0.00025330882,"MEAN_MOTION_DOT":1.11e-6,"MEAN_MOTION_DDOT":0}]
