ONEWEB-0714             
1 54681U 22166AR  26014.43461728  .00000106  00000+0  22467-3 0  9999
2 54681  87.9218 274.6540 0001746  70.9227 289.2096 13.21827981151223
ONEWEB-0532             
1 55140U 23004A   26014.49041464  .00000069  00000+0  14478-3 0  9990
2 55140  87.9095  36.4095 0002128 101.6926 258.4444 13.17650239147347
ONEWEB-0533             
1 55141U 23004B   26014.53457281  .00000442  00000+0  11925-2 0  9992
2 55141  87.8929  21.1747 0001938  86.1002 274.0349 13.12442494147905
ONEWEB-0541             
1 55142U 23004C   26014.52059835 -.00000292  00000+0 -85887-3 0  9999
2 55142  87.8834  51.6405 0001777 100.9431 259.1897 13.11418979145801
ONEWEB-0543             
1 55143U 23004D   26014.51391215  .00000061  00000+0  12103-3 0  9993
2 55143  87.9166   5.9999 0001679  77.8179 282.3142 13.18685139149449
ONEWEB-0544             
1 55144U 23004E   26014.50731803  .00000054  00000+0  10308-3 0  9991
2 55144  87.9172   5.9937 0001502  87.7295 272.4009 13.18687570149446
ONEWEB-0560             
1 55145U 23004F   26014.50071972  .00000060  00000+0  11870-3 0  9998
2 55145  87.9175   5.9834 0001538  85.3721 274.7586 13.18685686149455
ONEWEB-0565             
1 55146U 23004G   26014.49412014  .00000087  00000+0  18735-3 0  9999
2 55146  87.9165   6.0274 0001532 103.1949 256.9355 13.18685562149448
ONEWEB-0567             
1 55147U 23004H   26014.48752052  .00000061  00000+0  12083-3 0  9990
2 55147  87.9173   5.9983 0001440  95.8536 264.2760 13.18685459149447
ONEWEB-0569             
1 55148U 23004J   26014.43409651  .00000004  00000+0 -23034-4 0  9997
2 55148  87.9010 350.7649 0000795  79.8164 280.3055 13.13470397149993
ONEWEB-0570             
1 55149U 23004K   26014.47762435  .00000076  00000+0  15925-3 0  9991
2 55149  87.9174   5.9997 0002020 100.8352 259.3008 13.18686571149438
ONEWEB-0571             
1 55150U 23004L   26014.47103564  .00000035  00000+0  56420-4 0  9996
2 55150  87.9173   5.9999 0001069 131.0130 229.1095 13.18686526149445
ONEWEB-0572             
1 55151U 23004M   26014.52078699  .00000051  00000+0  97333-4 0  9999
2 55151  87.9088  36.4111 0001698  99.1774 260.9550 13.17650662147248
ONEWEB-0573             
1 55152U 23004N   26014.46442770  .00000059  00000+0  11708-3 0  9997
2 55152  87.9172   6.0042 0001709 114.4640 245.6671 13.18687070149436
ONEWEB-0588             
1 55153U 23004P   26014.45782813  .00000055  00000+0  10619-3 0  9998
2 55153  87.9178   6.0039 0001906 100.7271 259.4076 13.18686712149430
ONEWEB-0598             
1 55154U 23004Q   26014.49855710 -.00000386  00000+0 -11263-2 0  9994
2 55154  87.8822  51.6694 0001229 107.1325 252.9938 13.11414933145751
ONEWEB-0599             
1 55155U 23004R   26014.48197426  .00000111  00000+0  25331-3 0  9993
2 55155  87.9085  36.4188 0001609  90.4307 269.7009 13.17650491147247
